<?xml version="1.0" encoding="utf-8" ?>
<kml xmlns="http://www.opengis.net/kml/2.2">
<Document id="root_doc">
<Schema name="Mapa_sem_título" id="Mapa_sem_título">
	<SimpleField name="timestamp" type="string"></SimpleField>
	<SimpleField name="begin" type="string"></SimpleField>
	<SimpleField name="end" type="string"></SimpleField>
	<SimpleField name="altitudeMode" type="string"></SimpleField>
	<SimpleField name="tessellate" type="int"></SimpleField>
	<SimpleField name="extrude" type="int"></SimpleField>
	<SimpleField name="visibility" type="int"></SimpleField>
	<SimpleField name="drawOrder" type="int"></SimpleField>
	<SimpleField name="icon" type="string"></SimpleField>
</Schema>
<Folder><name>Mapa_sem_título</name>
  <Placemark>
	<name>niva santa rita</name>
	<Style><LineStyle><color>ff0000ff</color></LineStyle><PolyStyle><fill>0</fill></PolyStyle></Style>
	<ExtendedData><SchemaData schemaUrl="#Mapa_sem_título">
		<SimpleData name="tessellate">-1</SimpleData>
		<SimpleData name="extrude">0</SimpleData>
		<SimpleData name="visibility">-1</SimpleData>
	</SchemaData></ExtendedData>
      <Polygon><outerBoundaryIs><LinearRing><coordinates>-51.2650944342547,-29.8439979899196,0 -51.2651454720474,-29.8445931927415,0 -51.266679875881,-29.8445242773107,0 -51.2669080168153,-29.8456612537284,0 -51.2680660172298,-29.8469605945841,0 -51.2644862015245,-29.8496071867583,0 -51.26274633686,-29.8468486043855,0 -51.2634771182958,-29.8464322502045,0 -51.2631679503963,-29.8447921423533,0 -51.2648286930778,-29.8446378890298,0 -51.2647839302418,-29.8440034350692,0 -51.2650944342547,-29.8439979899196,0</coordinates></LinearRing></outerBoundaryIs></Polygon>
  </Placemark>
</Folder>
</Document></kml>
