<?xml version="1.0" encoding="UTF-8" standalone="yes" ?>
<kml xmlns="http://earth.google.com/kml/2.0">
<Document>
	<name>ARIQUEMES</name>
	<description><![CDATA[Powered by Neyton<br/>http://tbn2.blogspot.com/]]></description>
	<visibility>1</visibility>
	<open>1</open>
	<Style id="icones">
		<IconStyle>
			<Icon>
				<href>http://maps.google.com/mapfiles/kml/pal4/icon24.png</href>
			</Icon>
		</IconStyle>
	</Style>

	<Style id="Cartório">
		<LineStyle id="lCartórioLineStyle">
			<color>ffCC0099</color>
		</LineStyle>
		<PolyStyle id="pCartórioPolyStyle">
			<color>7fCC0099</color>
			<fill>1</fill>
			<outline>1</outline>
		</PolyStyle>
	</Style>

	<Folder>
		<name>Cartório</name>
		<visibility>1</visibility>
		<open>0</open>

		<Placemark>
			<name>768A</name>
			<description><![CDATA[]]></description>
			<styleUrl>#Cartório</styleUrl>
			<Polygon>
				<tessellate>1</tessellate>
				<outerBoundaryIs>					<LinearRing>
				<coordinates>
					-63.05921749968534,-9.88631035299794,0.000
					-63.05967336835378,-9.88635329966962,0.000
					-63.06184217951074,-9.88650189670390,0.000
					-63.06189946910277,-9.88557170958277,0.000
					-63.06310158495761,-9.88563884332307,0.000
					-63.06305962461892,-9.88718926662805,0.000
					-63.06503413351327,-9.88727386775821,0.000
					-63.06519620454953,-9.88575253596712,0.000
					-63.06784823987606,-9.88589647588918,0.000
					-63.06767522323299,-9.88733429184336,0.000
					-63.06756818537543,-9.89202475631330,0.000
					-63.06672062166580,-9.89350225491400,0.000
					-63.06670868098583,-9.89402543522963,0.000
					-63.05696506710164,-9.89380664590431,0.000
					-63.05738961884017,-9.88625032435248,0.000
					-63.05921749968534,-9.88631035299794,0.000
				</coordinates>
				<altitudeMode>clampedToGround</altitudeMode>
					</LinearRing>
				</outerBoundaryIs>			</Polygon>
		</Placemark>

	</Folder>

</Document>
</kml>
