<?xml version="1.0" encoding="UTF-8"?>

<kml xmlns="http://www.opengis.net/kml/2.2" xmlns:atom="http://www.w3.org/2005/Atom" xmlns:gx="http://www.google.com/kml/ext/2.2" xmlns:xsd="http://www.w3.org/2001/XMLSchema">
<Document>
<name>PERIMETRO AVARE</name>
<visibility>1</visibility>
<Folder id="kml_ft_PERIMETRO_AVARE">
<name>PERIMETRO AVARE</name>
<Placemark id="kml_1">
<name>kml_1</name>
<Style>
<LineStyle>
<color>ffffff00</color>
</LineStyle>
</Style>
<LineString>
<coordinates>-48.9293061111059,-23.1408886104284,0.0 -48.9282024999948,-23.1409091659839,0.0 -48.9280694444392,-23.1410772215395,0.0 -48.9274705555503,-23.1420947215394,0.0 -48.9272061111059,-23.1424683326505,0.0 -48.9267794444392,-23.1428763882061,0.0 -48.9263797222169,-23.1432149993172,0.0 -48.9258294444391,-23.1435752770949,0.0 -48.9254149999947,-23.1438799993171,0.0 -48.9250394444391,-23.1442655548727,0.0 -48.9247141666613,-23.1446386104282,0.0 -48.9241622222168,-23.1452466659838,0.0 -48.9234283333279,-23.1461005548726,0.0 -48.9226358333279,-23.1470272215393,0.0 -48.9221947222167,-23.1475236104281,0.0 -48.9221363888834,-23.147819999317,0.0 -48.9226530555501,-23.1492311104281,0.0 -48.9227458333279,-23.1497533326503,0.0 -48.9228502777723,-23.1499094437614,0.0 -48.9230902777723,-23.1501366659836,0.0 -48.9237263888835,-23.1494902770948,0.0 -48.9249199999946,-23.148409999317,0.0 -48.9284952777725,-23.1491347215393,0.0 -48.932036111106,-23.1420852770951,0.0 -48.9318588888838,-23.1420091659839,0.0 -48.9314408333283,-23.1420486104284,0.0 -48.9312455555505,-23.1420522215395,0.0 -48.9312405555505,-23.1418219437617,0.0 -48.9293274999948,-23.141857777095,0.0 -48.9293061111059,-23.1408886104284,0.0</coordinates>
</LineString>
</Placemark>
</Folder>
</Document></kml>
