<?xml version="1.0" encoding="UTF-8" standalone="yes" ?>
<kml xmlns="http://earth.google.com/kml/2.0">
<Document>
	<name>FAZENDAS PALOMAS</name>
	<description><![CDATA[Powered by Neyton<br/>http://tbn2.blogspot.com/]]></description>
	<visibility>1</visibility>
	<open>1</open>
	<Style id="icones">
		<IconStyle>
			<Icon>
				<href>http://maps.google.com/mapfiles/kml/pal4/icon24.png</href>
			</Icon>
		</IconStyle>
	</Style>

	<Style id="(A)(PERIMETRO)">
		<LineStyle id="l(A)(PERIMETRO)LineStyle">
			<color>ffFFFFFF</color>
		</LineStyle>
		<PolyStyle id="p(A)(PERIMETRO)PolyStyle">
			<color>7fFFFFFF</color>
			<fill>1</fill>
			<outline>1</outline>
		</PolyStyle>
	</Style>

	<Folder>
		<name>(A)(PERIMETRO)</name>
		<visibility>1</visibility>
		<open>0</open>

		<Placemark>
			<name>999A558</name>
			<description><![CDATA[]]></description>
			<styleUrl>#(A)(PERIMETRO)</styleUrl>
			<Polygon>
				<tessellate>1</tessellate>
				<outerBoundaryIs>					<LinearRing>
				<coordinates>
					-49.87164698812675,-6.09811771106544,0.000
					-49.87177991078360,-6.09956739688572,0.000
					-49.86902042610129,-6.09928944113542,0.000
					-49.86876455554129,-6.09987536242386,0.000
					-49.86850739107892,-6.10043481992288,0.000
					-49.86828525471119,-6.10101271138365,0.000
					-49.86821330140815,-6.10123666721028,0.000
					-49.86829943809413,-6.10402387582089,0.000
					-49.86838188589195,-6.10535492092680,0.000
					-49.86844798083249,-6.10625175803297,0.000
					-49.86857433252659,-6.10774247048426,0.000
					-49.86863260729304,-6.10876646513560,0.000
					-49.86852328682714,-6.10944233630161,0.000
					-49.87066298190813,-6.10943711365764,0.000
					-49.87390261496756,-6.10948899868825,0.000
					-49.87695356827139,-6.10960122237802,0.000
					-49.88120314673077,-6.10940487301292,0.000
					-49.88128248688981,-6.10964912674549,0.000
					-49.88128192174253,-6.10992129524449,0.000
					-49.88101054967557,-6.10992073060497,0.000
					-49.88094110690445,-6.11010635267509,0.000
					-49.88103578649931,-6.11023831437820,0.000
					-49.88122993739207,-6.11027327959768,0.000
					-49.88120669489075,-6.11055404120619,0.000
					-49.88100366050850,-6.11064002175797,0.000
					-49.88096666884653,-6.11078682997086,0.000
					-49.88106790788719,-6.11087776388598,0.000
					-49.88121460023980,-6.11090399007463,0.000
					-49.88121227845266,-6.11098282804074,0.000
					-49.88125719112399,-6.11117840843665,0.000
					-49.88131849992860,-6.11127249934696,0.000
					-49.88132232250095,-6.11151011573678,0.000
					-49.88185635321930,-6.11155118815606,0.000
					-49.88429182434733,-6.11162510071160,0.000
					-49.88739067808054,-6.11167499478145,0.000
					-49.89040671410418,-6.11159698522534,0.000
					-49.89181157750317,-6.11161068347112,0.000
					-49.89414161780612,-6.11166786366508,0.000
					-49.89648089297671,-6.11169535159488,0.000
					-49.89955016774978,-6.11170596345636,0.000
					-49.90198008352384,-6.11173469310427,0.000
					-49.90123819367616,-6.10955543520957,0.000
					-49.90066507503156,-6.10787192347293,0.000
					-49.89187667654880,-6.10776451732658,0.000
					-49.88805485668268,-6.10773502995425,0.000
					-49.88574523053912,-6.10773079077773,0.000
					-49.88330881129816,-6.10773167868273,0.000
					-49.88125222791794,-6.10772254525833,0.000
					-49.88123331914503,-6.10747517712557,0.000
					-49.88115837589515,-6.10719205118910,0.000
					-49.88115261924616,-6.10684642691225,0.000
					-49.88120049013734,-6.10665643969211,0.000
					-49.88115452769946,-6.10644681664863,0.000
					-49.88109863901667,-6.10634085665636,0.000
					-49.88100052112339,-6.10630609137466,0.000
					-49.88084621641529,-6.10630901055353,0.000
					-49.88074049617130,-6.10629799025853,0.000
					-49.88067926413315,-6.10616717824314,0.000
					-49.88065915993643,-6.10597596963948,0.000
					-49.88073811797971,-6.10588433062833,0.000
					-49.88065081268243,-6.10583878740921,0.000
					-49.87820487381454,-6.10575377095056,0.000
					-49.87394192659841,-6.10565036372921,0.000
					-49.87399871129132,-6.10170889124669,0.000
					-49.87397390869333,-6.10118502189114,0.000
					-49.87374354613135,-6.09833972521235,0.000
					-49.87164698812675,-6.09811771106544,0.000
				</coordinates>
				<altitudeMode>clampedToGround</altitudeMode>
					</LinearRing>
				</outerBoundaryIs>			</Polygon>
		</Placemark>

	</Folder>

</Document>
</kml>
