<?xml version="1.0" encoding="utf-8" ?>
<kml xmlns="http://www.opengis.net/kml/2.2">
<Document id="root_doc">
<Schema name="KMZ_Area_1ª_100ha_Sr_Sidney_Bordone.kmz" id="KMZ_Area_1ª_100ha_Sr_Sidney_Bordone.kmz">
	<SimpleField name="timestamp" type="string"></SimpleField>
	<SimpleField name="begin" type="string"></SimpleField>
	<SimpleField name="end" type="string"></SimpleField>
	<SimpleField name="altitudeMode" type="string"></SimpleField>
	<SimpleField name="tessellate" type="int"></SimpleField>
	<SimpleField name="extrude" type="int"></SimpleField>
	<SimpleField name="visibility" type="int"></SimpleField>
	<SimpleField name="drawOrder" type="int"></SimpleField>
	<SimpleField name="icon" type="string"></SimpleField>
</Schema>
<Folder><name>KMZ_Area_1ª_100ha_Sr_Sidney_Bordone.kmz</name>
  <Placemark>
	<name>Area 1ª 100ha Sr Sidney Bordone</name>
	<description>Area 1ª 200ha Sr Sidney Bordone
Corretores: Junior/Augusto/Gustavo</description>
	<Style><LineStyle><color>ff0000ff</color></LineStyle><PolyStyle><fill>0</fill></PolyStyle></Style>
	<ExtendedData><SchemaData schemaUrl="#KMZ_Area_1ª_100ha_Sr_Sidney_Bordone.kmz">
		<SimpleData name="tessellate">1</SimpleData>
		<SimpleData name="extrude">0</SimpleData>
		<SimpleData name="visibility">-1</SimpleData>
	</SchemaData></ExtendedData>
      <Polygon><outerBoundaryIs><LinearRing><coordinates>-58.0903203769135,-15.7047052344878,0 -58.0900717350848,-15.7041150912202,0 -58.0894270009242,-15.7037013008714,0 -58.0879810498318,-15.7014484721122,0 -58.0950354274128,-15.6902399505025,0 -58.1008747284198,-15.6941247385671,0 -58.0918802176809,-15.7050682651349,0 -58.0903203769135,-15.7047052344878,0</coordinates></LinearRing></outerBoundaryIs></Polygon>
  </Placemark>
</Folder>
</Document></kml>
